OBJECT_NAME,OBJECT_ID,EPOCH,MEAN_MOTION,ECCENTRICITY,INCLINATION,RA_OF_ASC_NODE,ARG_OF_PERICENTER,MEAN_ANOMALY,EPHEMERIS_TYPE,CLASSIFICATION_TYPE,NORAD_CAT_ID,ELEMENT_SET_NO,REV_AT_EPOCH,BSTAR,MEAN_MOTION_DOT,MEAN_MOTION_DDOT
INTELSAT 21 (IS-21),2012-045A,2026-06-04T13:17:10.137120,1.00268805,.0002238,0.0380,79.6448,351.8238,322.8223,0,U,38749,999,5039,0,-.273E-5,0
INTELSAT 23 (IS-23),2012-057A,2026-06-04T11:35:59.839008,1.00268362,.0000259,0.0131,304.8908,182.1184,246.9158,0,U,38867,999,4982,0,-.273E-5,0
FM-6,2013-058A,2026-06-04T14:47:01.289760,1.00251470,.0002121,0.0096,36.6997,147.5696,174.2528,0,U,39360,999,4594,0,-.1E-7,0
INTELSAT 30 (IS-30),2014-062A,2026-06-04T14:34:36.168384,1.00269672,.0001172,0.0255,45.6956,358.1149,332.8320,0,U,40271,999,666,0,-.139E-5,0
DIRECTV 14,2014-078B,2026-06-04T13:05:26.262240,1.00271402,.0000183,0.0097,322.4377,199.3900,188.2935,0,U,40333,999,4191,0,-.113E-5,0
DIRECTV 15,2015-026A,2026-06-04T14:47:02.448384,1.00271244,.0000219,0.0176,6.1061,280.6049,85.2160,0,U,40663,999,4033,0,-.9E-6,0
SKY MEXICO-1,2015-026B,2026-06-04T14:53:54.290400,1.00266106,.0002177,0.0171,0.0483,80.4060,317.2822,0,U,40664,999,4032,0,-.222E-5,0
INTELSAT 34 (IS-34),2015-039A,2026-06-04T11:35:14.911008,1.00269907,.0000318,0.0083,334.1576,54.5646,342.5243,0,U,40874,999,3950,0,-.273E-5,0
INTELSAT 31 (IS-31),2016-035A,2026-06-04T14:34:36.168384,1.00272915,.0000692,0.0155,264.3796,318.4264,153.8560,0,U,41581,999,3655,0,-.139E-5,0
INTELSAT 36 (IS-36),2016-053A,2026-06-04T18:36:40.620096,1.00270753,.0001622,0.0136,12.5415,330.1691,258.1691,0,U,41747,999,3583,0,-.12E-6,0
INTELSAT 32E (IS-32E),2017-007B,2026-06-04T11:38:44.577024,1.00272952,.0000455,0.0180,347.8046,15.9771,20.6539,0,U,41945,999,3409,0,-.257E-5,0
INTELSAT 35E (IS-35E),2017-041A,2026-06-04T09:58:34.420224,1.00274332,.0002014,0.0172,10.6554,61.9811,295.3748,0,U,42818,999,3268,0,-.226E-5,0
INTELSAT 37E (IS-37E),2017-059A,2026-06-04T15:11:06.015264,1.00271155,.0002637,0.0168,10.3042,77.6406,14.9203,0,U,42950,999,3194,0,-.129E-5,0
AZERSPACE 2 (IS-38),2018-074A,2026-06-04T12:03:57.159360,1.00272076,.0001654,0.0013,357.4289,67.8132,53.8049,0,U,43632,999,2832,0,.148E-5,0
HORIZONS-3E,2018-074B,2026-06-04T14:46:38.428320,1.00270803,.0000751,0.0181,149.5538,123.5060,10.6575,0,U,43633,999,2821,0,-.19E-6,0
AT&T T-16,2019-034A,2026-06-04T14:47:39.888096,1.00269963,.000043,0.0235,61.1815,248.7268,64.2148,0,U,44333,999,2550,0,-.103E-5,0
INTELSAT 39 (IS-39),2019-049B,2026-06-04T15:25:19.325856,1.00271423,.0000583,0.0188,328.9935,359.4045,217.9725,0,U,44476,999,2500,0,.45E-6,0
GALAXY 30 (G-30),2020-056C,2026-06-04T14:52:01.107264,1.00272562,.0002458,0.0178,328.6120,101.8903,280.5504,0,U,46114,999,2116,0,.49E-6,0
GALAXY 33 (G-33),2022-128A,2026-06-04T18:39:55.412352,1.00271770,.0002026,0.0161,33.5739,40.2638,326.3762,0,U,54026,999,1361,0,.91E-6,0
GALAXY 34 (G-34),2022-128B,2026-06-04T14:54:01.166976,1.00276282,.0002097,0.0159,0.4577,81.0440,266.0785,0,U,54027,999,1378,0,.7E-6,0
GALAXY 31 (G-31),2022-153A,2026-06-04T05:49:38.673408,1.00272013,.00015053,0.0117,34.5374,38.7813,145.7848,0,U,54243,999,700,0,.25E-6,0
GALAXY 32 (G-32),2022-153B,2026-06-03T20:00:59.416128,1.00270822,.00023838,0.0097,353.7552,46.7034,61.0732,0,U,54244,999,1301,0,-.162E-5,0
GALAXY 35 (G-35),2022-170A,2026-06-04T04:22:38.760384,1.00272420,.00022482,0.0158,34.4261,43.2199,147.5532,0,U,54741,999,1276,0,-.15E-5,0
GALAXY 36 (G-36),2022-170B,2026-06-03T20:01:44.344128,1.00272722,.00029038,0.0175,242.0719,197.6370,24.0211,0,U,54742,999,1264,0,-.173E-5,0
GALAXY 37 (G-37),2023-112A,2026-06-04T05:49:38.673408,1.00273075,.00022573,0.0153,312.9979,123.4457,136.6679,0,U,57493,999,1041,0,.6E-6,0
