INTELSAT 21 (IS-21)     
1 38749U 12045A   26155.55358955 -.00000273  00000+0  00000+0 0  9998
2 38749   0.0380  79.6448 0002238 351.8238 322.8223  1.00268805 50396
INTELSAT 23 (IS-23)     
1 38867U 12057A   26155.48333147 -.00000273  00000+0  00000+0 0  9990
2 38867   0.0131 304.8908 0000259 182.1184 246.9158  1.00268362 49828
FM-6                    
1 39360U 13058A   26155.61598715 -.00000001  00000+0  00000+0 0  9999
2 39360   0.0096  36.6997 0002121 147.5696 174.2528  1.00251470 45943
INTELSAT 30 (IS-30)     
1 40271U 14062A   26155.60736306 -.00000139  00000+0  00000+0 0  9999
2 40271   0.0255  45.6956 0001172 358.1149 332.8320  1.00269672  6667
DIRECTV 14              
1 40333U 14078B   26155.54544285 -.00000113  00000+0  00000+0 0  9993
2 40333   0.0097 322.4377 0000183 199.3900 188.2935  1.00271402 41910
DIRECTV 15              
1 40663U 15026A   26155.61600056 -.00000090  00000+0  00000+0 0  9994
2 40663   0.0176   6.1061 0000219 280.6049  85.2160  1.00271244 40333
SKY MEXICO-1            
1 40664U 15026B   26155.62076725 -.00000222  00000+0  00000+0 0  9993
2 40664   0.0171   0.0483 0002177  80.4060 317.2822  1.00266106 40327
INTELSAT 34 (IS-34)     
1 40874U 15039A   26155.48281147 -.00000273  00000+0  00000+0 0  9996
2 40874   0.0083 334.1576 0000318  54.5646 342.5243  1.00269907 39501
INTELSAT 31 (IS-31)     
1 41581U 16035A   26155.60736306 -.00000139  00000+0  00000+0 0  9996
2 41581   0.0155 264.3796 0000692 318.4264 153.8560  1.00272915 36558
INTELSAT 36 (IS-36)     
1 41747U 16053A   26155.77547014 -.00000012  00000+0  00000+0 0  9994
2 41747   0.0136  12.5415 0001622 330.1691 258.1691  1.00270753 35833
INTELSAT 32E (IS-32E)   
1 41945U 17007B   26155.48523816 -.00000257  00000+0  00000+0 0  9997
2 41945   0.0180 347.8046 0000455  15.9771  20.6539  1.00272952 34099
INTELSAT 35E (IS-35E)   
1 42818U 17041A   26155.41567616 -.00000226  00000+0  00000+0 0  9990
2 42818   0.0172  10.6554 0002014  61.9811 295.3748  1.00274332 32688
INTELSAT 37E (IS-37E)   
1 42950U 17059A   26155.63270851 -.00000129  00000+0  00000+0 0  9994
2 42950   0.0168  10.3042 0002637  77.6406  14.9203  1.00271155 31943
AZERSPACE 2 (IS-38)     
1 43632U 18074A   26155.50274490  .00000148  00000+0  00000+0 0  9999
2 43632   0.0013 357.4289 0001654  67.8132  53.8049  1.00272076 28324
HORIZONS-3E             
1 43633U 18074B   26155.61572255 -.00000019  00000+0  00000+0 0  9990
2 43633   0.0181 149.5538 0000751 123.5060  10.6575  1.00270803 28214
AT&T T-16               
1 44333U 19034A   26155.61643389 -.00000103  00000+0  00000+0 0  9996
2 44333   0.0235  61.1815 0000430 248.7268  64.2148  1.00269963 25508
INTELSAT 39 (IS-39)     
1 44476U 19049B   26155.64258479  .00000045  00000+0  00000+0 0  9999
2 44476   0.0188 328.9935 0000583 359.4045 217.9725  1.00271423 25009
GALAXY 30 (G-30)        
1 46114U 20056C   26155.61945726  .00000049  00000+0  00000+0 0  9999
2 46114   0.0178 328.6120 0002458 101.8903 280.5504  1.00272562 21166
GALAXY 33 (G-33)        
1 54026U 22128A   26155.77772468  .00000091  00000+0  00000+0 0  9997
2 54026   0.0161  33.5739 0002026  40.2638 326.3762  1.00271770 13615
GALAXY 34 (G-34)        
1 54027U 22128B   26155.62084684  .00000070  00000+0  00000+0 0  9995
2 54027   0.0159   0.4577 0002097  81.0440 266.0785  1.00276282 13784
GALAXY 31 (G-31)        
1 54243U 22153A   26155.24280872  .00000025  00000+0  00000+0 0  9998
2 54243   0.0117  34.5374 0001505  38.7813 145.7848  1.00272013  7006
GALAXY 32 (G-32)        
1 54244U 22153B   26154.83402102 -.00000162  00000+0  00000+0 0  9998
2 54244   0.0097 353.7552 0002383  46.7034  61.0732  1.00270822 13013
GALAXY 35 (G-35)        
1 54741U 22170A   26155.18239306 -.00000150  00000+0  00000+0 0  9999
2 54741   0.0158  34.4261 0002248  43.2199 147.5532  1.00272420 12762
GALAXY 36 (G-36)        
1 54742U 22170B   26154.83454102 -.00000173  00000+0  00000+0 0  9999
2 54742   0.0175 242.0719 0002903 197.6370  24.0211  1.00272722 12645
GALAXY 37 (G-37)        
1 57493U 23112A   26155.24280872  .00000060  00000+0  00000+0 0  9993
2 57493   0.0153 312.9979 0002257 123.4457 136.6679  1.00273075 10410
